[{"OBJECT_NAME":"STARLINK-32920","OBJECT_ID":"2025-027U","EPOCH":"2026-03-09T13:32:12.363072","MEAN_MOTION":15.27576566,"ECCENTRICITY":0.0001537,"INCLINATION":42.9989,"RA_OF_ASC_NODE":129.5276,"ARG_OF_PERICENTER":249.7084,"MEAN_ANOMALY":110.3602,"EPHEMERIS_TYPE":0,"CLASSIFICATION_TYPE":"U","NORAD_CAT_ID":62925,"ELEMENT_SET_NO":999,"REV_AT_EPOCH":6152,"BSTAR":0.00050229,"MEAN_MOTION_DOT":0.00013584,"MEAN_MOTION_DDOT":0},{"OBJECT_NAME":"TRANSPORTER-14 OBJECT AC","OBJECT_ID":"2025-135AC","EPOCH":"2026-03-09T19:42:26.378496","MEAN_MOTION":15.26845403,"ECCENTRICITY":0.00010083,"INCLINATION":97.4518,"RA_OF_ASC_NODE":185.7428,"ARG_OF_PERICENTER":268.0523,"MEAN_ANOMALY":92.06,"EPHEMERIS_TYPE":0,"CLASSIFICATION_TYPE":"U","NORAD_CAT_ID":64554,"ELEMENT_SET_NO":999,"REV_AT_EPOCH":3982,"BSTAR":0.0009323368,"MEAN_MOTION_DOT":0.00024574,"MEAN_MOTION_DDOT":0}]
