STARLINK-32920          
1 62925U 25027U   26068.56403198  .00013584  00000+0  50229-3 0  9999
2 62925  42.9989 129.5276 0001537 249.7084 110.3602 15.27576566 61526
TRANSPORTER-14 OBJECT AC
1 64554U 25135AC  26068.82113864  .00024574  00000+0  93234-3 0  9990
2 64554  97.4518 185.7428 0001008 268.0523  92.0600 15.26845403 39827
